{
  "type": "FeatureCollection",
  "features": [
    {
      "type": "Feature",
      "properties": {
        "nombre": "SALAMANCA"
      },
      "geometry": {
        "type": "Polygon",
        "coordinates": [
          [
            [
              -76.9982277,
              -12.0634474
            ],
            [
              -76.9982973,
              -12.0638893
            ],
            [
              -76.9968811,
              -12.0639523
            ],
            [
              -76.9941345,
              -12.06433
            ],
            [
              -76.9914523,
              -12.0647497
            ],
            [
              -76.9875041,
              -12.0645818
            ],
            [
              -76.9889032,
              -12.0695716
            ],
            [
              -76.9890748,
              -12.0716279
            ],
            [
              -76.9885169,
              -12.0733695
            ],
            [
              -76.9892679,
              -12.0735374
            ],
            [
              -76.9908773,
              -12.0736423
            ],
            [
              -76.9912206,
              -12.0742088
            ],
            [
              -76.9905125,
              -12.0762022
            ],
            [
              -76.9875513,
              -12.0799371
            ],
            [
              -76.9852124,
              -12.0829376
            ],
            [
              -76.9839679,
              -12.0843014
            ],
            [
              -76.9833027,
              -12.0852666
            ],
            [
              -76.9816612,
              -12.0849488
            ],
            [
              -76.9752239,
              -12.0769754
            ],
            [
              -76.9709898,
              -12.0638409
            ],
            [
              -76.9714405,
              -12.0622671
            ],
            [
              -76.9733073,
              -12.0594762
            ],
            [
              -76.9725455,
              -12.0598434
            ],
            [
              -76.9730176,
              -12.0587732
            ],
            [
              -76.9741549,
              -12.0564859
            ],
            [
              -76.9746162,
              -12.056402
            ],
            [
              -76.9748093,
              -12.0569896
            ],
            [
              -76.9748308,
              -12.0588047
            ],
            [
              -76.9755174,
              -12.0590565
            ],
            [
              -76.9760646,
              -12.0592873
            ],
            [
              -76.9765045,
              -12.0596546
            ],
            [
              -76.9767298,
              -12.0590355
            ],
            [
              -76.9777597,
              -12.0593503
            ],
            [
              -76.9790043,
              -12.0599693
            ],
            [
              -76.9808175,
              -12.060431
            ],
            [
              -76.9811071,
              -12.061071
            ],
            [
              -76.9808496,
              -12.0620048
            ],
            [
              -76.9815685,
              -12.0626133
            ],
            [
              -76.9820084,
              -12.0625609
            ],
            [
              -76.9812466,
              -12.0617844
            ],
            [
              -76.9817938,
              -12.0609346
            ],
            [
              -76.9826628,
              -12.0609451
            ],
            [
              -76.9834031,
              -12.0610395
            ],
            [
              -76.9843043,
              -12.0615641
            ],
            [
              -76.9854416,
              -12.0613543
            ],
            [
              -76.9872226,
              -12.0620048
            ],
            [
              -76.9881774,
              -12.0616376
            ],
            [
              -76.9889928,
              -12.0609031
            ],
            [
              -76.9888534,
              -12.0603261
            ],
            [
              -76.9884778,
              -12.0596965
            ],
            [
              -76.9901086,
              -12.0582276
            ],
            [
              -76.9911386,
              -12.0575142
            ],
            [
              -76.9923939,
              -12.0564545
            ],
            [
              -76.9938101,
              -12.0566643
            ],
            [
              -76.9943787,
              -12.0581437
            ],
            [
              -76.9954838,
              -12.0591929
            ],
            [
              -76.9972514,
              -12.0617267
            ],
            [
              -76.9979487,
              -12.0617267
            ],
            [
              -76.9982277,
              -12.0634474
            ]
          ]
        ]
      }
    },
    {
      "type": "Feature",
      "properties": {
        "nombre": "MAYORAZGO"
      },
      "geometry": {
        "type": "Polygon",
        "coordinates": [
          [
            [
              -76.9741549,
              -12.0564859
            ],
            [
              -76.9733073,
              -12.0594762
            ],
            [
              -76.9709898,
              -12.0638409
            ],
            [
              -76.9726407,
              -12.0691032
            ],
            [
              -76.9615588,
              -12.0636122
            ],
            [
              -76.9579325,
              -12.0624581
            ],
            [
              -76.9543705,
              -12.0620174
            ],
            [
              -76.9513879,
              -12.0609682
            ],
            [
              -76.944264,
              -12.057275
            ],
            [
              -76.9438777,
              -12.0578835
            ],
            [
              -76.9420538,
              -12.0607164
            ],
            [
              -76.9413886,
              -12.0618915
            ],
            [
              -76.9399229,
              -12.0642977
            ],
            [
              -76.9389788,
              -12.0648853
            ],
            [
              -76.9370476,
              -12.0648014
            ],
            [
              -76.9345585,
              -12.0637522
            ],
            [
              -76.9335714,
              -12.0616958
            ],
            [
              -76.9334427,
              -12.0601429
            ],
            [
              -76.9337002,
              -12.0585062
            ],
            [
              -76.9347731,
              -12.0564497
            ],
            [
              -76.9349018,
              -12.0548549
            ],
            [
              -76.9372651,
              -12.0518164
            ],
            [
              -76.9365355,
              -12.0508091
            ],
            [
              -76.9343898,
              -12.0482909
            ],
            [
              -76.9326303,
              -12.0443037
            ],
            [
              -76.9327612,
              -12.0438084
            ],
            [
              -76.9331046,
              -12.0431054
            ],
            [
              -76.9336625,
              -12.0421925
            ],
            [
              -76.9347353,
              -12.0412062
            ],
            [
              -76.9364519,
              -12.042969
            ],
            [
              -76.9613428,
              -12.0530418
            ],
            [
              -76.9647761,
              -12.0545527
            ],
            [
              -76.9692393,
              -12.0564413
            ],
            [
              -76.9717284,
              -12.0574905
            ],
            [
              -76.9741549,
              -12.0564859
            ]
          ]
        ]
      }
    },
    {
      "type": "Feature",
      "properties": {
        "nombre": "VITARTE"
      },
      "geometry": {
        "type": "Polygon",
        "coordinates": [
          [
            [
              -76.9552467,
              -12.0291958
            ],
            [
              -76.9461031,
              -12.0279634
            ],
            [
              -76.9441504,
              -12.0280264
            ],
            [
              -76.9431204,
              -12.0310065
            ],
            [
              -76.9421119,
              -12.0335563
            ],
            [
              -76.9404382,
              -12.0371449
            ],
            [
              -76.9378418,
              -12.0435245
            ],
            [
              -76.9364519,
              -12.042969
            ],
            [
              -76.9347487,
              -12.0411983
            ],
            [
              -76.9326437,
              -12.0442958
            ],
            [
              -76.9338748,
              -12.0464776
            ],
            [
              -76.9321582,
              -12.0471491
            ],
            [
              -76.931729,
              -12.0485761
            ],
            [
              -76.932759,
              -12.0511782
            ],
            [
              -76.9325873,
              -12.0538643
            ],
            [
              -76.9303558,
              -12.0587326
            ],
            [
              -76.927695,
              -12.0636009
            ],
            [
              -76.9188544,
              -12.0654475
            ],
            [
              -76.9190261,
              -12.0615865
            ],
            [
              -76.9216869,
              -12.0561306
            ],
            [
              -76.9234893,
              -12.0526891
            ],
            [
              -76.9228027,
              -12.0505067
            ],
            [
              -76.9197986,
              -12.0485761
            ],
            [
              -76.9164512,
              -12.0482404
            ],
            [
              -76.9123313,
              -12.0470652
            ],
            [
              -76.9108722,
              -12.0461418
            ],
            [
              -76.9116447,
              -12.0442112
            ],
            [
              -76.911988,
              -12.0420287
            ],
            [
              -76.9133613,
              -12.0382513
            ],
            [
              -76.915507,
              -12.035733
            ],
            [
              -76.9137046,
              -12.0352293
            ],
            [
              -76.9100139,
              -12.0362367
            ],
            [
              -76.9085548,
              -12.0383352
            ],
            [
              -76.9073531,
              -12.0405178
            ],
            [
              -76.9076964,
              -12.0447988
            ],
            [
              -76.9052074,
              -12.0471491
            ],
            [
              -76.9022033,
              -12.0491637
            ],
            [
              -76.8993709,
              -12.0499191
            ],
            [
              -76.8965385,
              -12.0502549
            ],
            [
              -76.8945644,
              -12.0489958
            ],
            [
              -76.8929336,
              -12.0476528
            ],
            [
              -76.8911311,
              -12.048744
            ],
            [
              -76.8926761,
              -12.0505067
            ],
            [
              -76.8919036,
              -12.0534446
            ],
            [
              -76.8892429,
              -12.0536125
            ],
            [
              -76.8889854,
              -12.0526891
            ],
            [
              -76.8881271,
              -12.0518497
            ],
            [
              -76.8871829,
              -12.0539482
            ],
            [
              -76.8854663,
              -12.0527731
            ],
            [
              -76.8859813,
              -12.0511782
            ],
            [
              -76.8864963,
              -12.0488279
            ],
            [
              -76.8840072,
              -12.0494994
            ],
            [
              -76.8801448,
              -12.0506746
            ],
            [
              -76.8798015,
              -12.0489119
            ],
            [
              -76.8825481,
              -12.0474009
            ],
            [
              -76.8846938,
              -12.0458061
            ],
            [
              -76.8866679,
              -12.044547
            ],
            [
              -76.8883845,
              -12.044463
            ],
            [
              -76.889157,
              -12.0425324
            ],
            [
              -76.8883845,
              -12.040182
            ],
            [
              -76.8877837,
              -12.0380834
            ],
            [
              -76.8895003,
              -12.0365724
            ],
            [
              -76.8917319,
              -12.0332986
            ],
            [
              -76.8927619,
              -12.026583
            ],
            [
              -76.8938133,
              -12.0238127
            ],
            [
              -76.8953797,
              -12.0169079
            ],
            [
              -76.8960235,
              -12.0161314
            ],
            [
              -76.8981478,
              -12.0159635
            ],
            [
              -76.899049,
              -12.0154598
            ],
            [
              -76.8999717,
              -12.0149351
            ],
            [
              -76.8940494,
              -12.0132561
            ],
            [
              -76.896753,
              -12.0134869
            ],
            [
              -76.9000575,
              -12.0144734
            ],
            [
              -76.9025252,
              -12.0159845
            ],
            [
              -76.9061515,
              -12.0176215
            ],
            [
              -76.9094345,
              -12.0188807
            ],
            [
              -76.9111082,
              -12.020119
            ],
            [
              -76.9147024,
              -12.0226794
            ],
            [
              -76.9152496,
              -12.0231726
            ],
            [
              -76.9175348,
              -12.0236028
            ],
            [
              -76.9208822,
              -12.0236553
            ],
            [
              -76.9234035,
              -12.0234559
            ],
            [
              -76.924015,
              -12.0238232
            ],
            [
              -76.9250128,
              -12.0237078
            ],
            [
              -76.926193,
              -12.0236658
            ],
            [
              -76.9290361,
              -12.0238547
            ],
            [
              -76.931257,
              -12.0236868
            ],
            [
              -76.9322869,
              -12.024117
            ],
            [
              -76.9341645,
              -12.0235084
            ],
            [
              -76.9354841,
              -12.0228578
            ],
            [
              -76.9408486,
              -12.0227738
            ],
            [
              -76.9463954,
              -12.0235504
            ],
            [
              -76.9473288,
              -12.0241275
            ],
            [
              -76.9484017,
              -12.0242849
            ],
            [
              -76.9504509,
              -12.02418
            ],
            [
              -76.9514808,
              -12.0245262
            ],
            [
              -76.9524357,
              -12.024883
            ],
            [
              -76.9529078,
              -12.0258589
            ],
            [
              -76.9536373,
              -12.0270132
            ],
            [
              -76.9545171,
              -12.028031
            ],
            [
              -76.9552467,
              -12.0291958
            ]
          ]
        ]
      }
    },
    {
      "type": "Feature",
      "properties": {
        "nombre": "SANTA CLARA"
      },
      "geometry": {
        "type": "Polygon",
        "coordinates": [
          [
            [
              -76.8960101,
              -12.0161393
            ],
            [
              -76.8945858,
              -12.0207862
            ],
            [
              -76.8928692,
              -12.0262848
            ],
            [
              -76.8920109,
              -12.0316573
            ],
            [
              -76.8894869,
              -12.0365803
            ],
            [
              -76.8881914,
              -12.0367359
            ],
            [
              -76.8866894,
              -12.0371347
            ],
            [
              -76.8863032,
              -12.0359805
            ],
            [
              -76.8851445,
              -12.0352669
            ],
            [
              -76.8835728,
              -12.0365392
            ],
            [
              -76.8839671,
              -12.0381826
            ],
            [
              -76.8823444,
              -12.0394903
            ],
            [
              -76.8816309,
              -12.041602
            ],
            [
              -76.8819046,
              -12.0436717
            ],
            [
              -76.869695,
              -12.0474176
            ],
            [
              -76.8715403,
              -12.0423601
            ],
            [
              -76.8724415,
              -12.0368619
            ],
            [
              -76.8761752,
              -12.0379007
            ],
            [
              -76.8799088,
              -12.0342386
            ],
            [
              -76.8791363,
              -12.0340707
            ],
            [
              -76.8738899,
              -12.0342072
            ],
            [
              -76.8713043,
              -12.0360855
            ],
            [
              -76.8682787,
              -12.0351832
            ],
            [
              -76.86079,
              -12.0359806
            ],
            [
              -76.8646524,
              -12.0324968
            ],
            [
              -76.861879,
              -12.0304716
            ],
            [
              -76.8636546,
              -12.0296636
            ],
            [
              -76.8668839,
              -12.0285933
            ],
            [
              -76.8700972,
              -12.0309333
            ],
            [
              -76.8740401,
              -12.0302933
            ],
            [
              -76.8817971,
              -12.0285933
            ],
            [
              -76.8820545,
              -12.0271662
            ],
            [
              -76.8784067,
              -12.0268304
            ],
            [
              -76.8766043,
              -12.0257811
            ],
            [
              -76.8731282,
              -12.0271662
            ],
            [
              -76.8651888,
              -12.0285933
            ],
            [
              -76.8631718,
              -12.0286353
            ],
            [
              -76.8622706,
              -12.0269983
            ],
            [
              -76.8636868,
              -12.0259909
            ],
            [
              -76.8647167,
              -12.024354
            ],
            [
              -76.8666479,
              -12.0231367
            ],
            [
              -76.8677637,
              -12.0217516
            ],
            [
              -76.8650601,
              -12.0216257
            ],
            [
              -76.8632147,
              -12.0208701
            ],
            [
              -76.8673346,
              -12.0185615
            ],
            [
              -76.8685791,
              -12.017764
            ],
            [
              -76.8690083,
              -12.0168825
            ],
            [
              -76.8679354,
              -12.0168825
            ],
            [
              -76.86712,
              -12.0147838
            ],
            [
              -76.8668196,
              -12.012769
            ],
            [
              -76.8659184,
              -12.0111319
            ],
            [
              -76.8643734,
              -12.0118455
            ],
            [
              -76.8614981,
              -12.0114258
            ],
            [
              -76.8599531,
              -12.0125171
            ],
            [
              -76.8579361,
              -12.011048
            ],
            [
              -76.8563483,
              -12.0117196
            ],
            [
              -76.8556187,
              -12.0134406
            ],
            [
              -76.8556616,
              -12.0149937
            ],
            [
              -76.8542025,
              -12.016043
            ],
            [
              -76.8526575,
              -12.0180578
            ],
            [
              -76.8518851,
              -12.0204924
            ],
            [
              -76.8499968,
              -12.0229269
            ],
            [
              -76.8484089,
              -12.0232207
            ],
            [
              -76.8493101,
              -12.0196529
            ],
            [
              -76.8489668,
              -12.0156233
            ],
            [
              -76.8482373,
              -12.0137764
            ],
            [
              -76.847851,
              -12.0122233
            ],
            [
              -76.849911,
              -12.0066825
            ],
            [
              -76.8499324,
              -12.0063886
            ],
            [
              -76.8496105,
              -12.0051713
            ],
            [
              -76.8540737,
              -12.0058009
            ],
            [
              -76.8588373,
              -12.0064306
            ],
            [
              -76.8660471,
              -12.007564
            ],
            [
              -76.8710682,
              -12.0086134
            ],
            [
              -76.8790505,
              -12.0105023
            ],
            [
              -76.8845436,
              -12.0112159
            ],
            [
              -76.8857023,
              -12.0131048
            ],
            [
              -76.8881914,
              -12.0138603
            ],
            [
              -76.8914959,
              -12.0150776
            ],
            [
              -76.8940279,
              -12.0158332
            ],
            [
              -76.8960101,
              -12.0161393
            ]
          ]
        ]
      }
    },
    {
      "type": "Feature",
      "properties": {
        "nombre": "HUAYCÁN"
      },
      "geometry": {
        "type": "Polygon",
        "coordinates": [
          [
            [
              -76.8496018,
              -12.0052402
            ],
            [
              -76.8499023,
              -12.0067514
            ],
            [
              -76.8478423,
              -12.0122922
            ],
            [
              -76.846707,
              -12.0127844
            ],
            [
              -76.8447329,
              -12.0137078
            ],
            [
              -76.8433596,
              -12.0150511
            ],
            [
              -76.8430163,
              -12.0166461
            ],
            [
              -76.842673,
              -12.0187448
            ],
            [
              -76.8418147,
              -12.0213473
            ],
            [
              -76.8403555,
              -12.0243694
            ],
            [
              -76.8400122,
              -12.026552
            ],
            [
              -76.8395831,
              -12.0276433
            ],
            [
              -76.8379523,
              -12.0289025
            ],
            [
              -76.837094,
              -12.0304135
            ],
            [
              -76.8367506,
              -12.0335195
            ],
            [
              -76.8374373,
              -12.0367094
            ],
            [
              -76.8353773,
              -12.0397313
            ],
            [
              -76.8337466,
              -12.0385561
            ],
            [
              -76.8338324,
              -12.0363736
            ],
            [
              -76.8342616,
              -12.0344429
            ],
            [
              -76.8342616,
              -12.0323443
            ],
            [
              -76.8328024,
              -12.0304135
            ],
            [
              -76.8316866,
              -12.031253
            ],
            [
              -76.8328883,
              -12.0332677
            ],
            [
              -76.831,
              -12.0349466
            ],
            [
              -76.8309142,
              -12.0336035
            ],
            [
              -76.8291975,
              -12.0328479
            ],
            [
              -76.8279101,
              -12.0339392
            ],
            [
              -76.8288542,
              -12.0354502
            ],
            [
              -76.8301417,
              -12.0379685
            ],
            [
              -76.8303992,
              -12.0409065
            ],
            [
              -76.8273093,
              -12.0415781
            ],
            [
              -76.8255927,
              -12.0392277
            ],
            [
              -76.8241335,
              -12.0412423
            ],
            [
              -76.8209578,
              -12.0400671
            ],
            [
              -76.820357,
              -12.0386401
            ],
            [
              -76.8217303,
              -12.0362057
            ],
            [
              -76.8211295,
              -12.0356181
            ],
            [
              -76.8199707,
              -12.0359539
            ],
            [
              -76.8181683,
              -12.0361638
            ],
            [
              -76.8140484,
              -12.0348206
            ],
            [
              -76.813748,
              -12.0325961
            ],
            [
              -76.8149496,
              -12.0304975
            ],
            [
              -76.8153359,
              -12.0286087
            ],
            [
              -76.8146922,
              -12.0277692
            ],
            [
              -76.8134905,
              -12.0279791
            ],
            [
              -76.8112589,
              -12.0277692
            ],
            [
              -76.8103577,
              -12.0285667
            ],
            [
              -76.8093707,
              -12.0293642
            ],
            [
              -76.8091132,
              -12.0311271
            ],
            [
              -76.8088986,
              -12.0329319
            ],
            [
              -76.8089844,
              -12.0355342
            ],
            [
              -76.8079544,
              -12.0351984
            ],
            [
              -76.807182,
              -12.0339392
            ],
            [
              -76.8068816,
              -12.032806
            ],
            [
              -76.8069245,
              -12.0315888
            ],
            [
              -76.8056799,
              -12.0317567
            ],
            [
              -76.8044354,
              -12.0313369
            ],
            [
              -76.8023325,
              -12.0311271
            ],
            [
              -76.8015171,
              -12.0295741
            ],
            [
              -76.7999293,
              -12.0275174
            ],
            [
              -76.801088,
              -12.0263841
            ],
            [
              -76.8029763,
              -12.026636
            ],
            [
              -76.80362,
              -12.0254607
            ],
            [
              -76.8013455,
              -12.0237818
            ],
            [
              -76.8035771,
              -12.0227744
            ],
            [
              -76.8037058,
              -12.0218929
            ],
            [
              -76.8034912,
              -12.0200461
            ],
            [
              -76.8047787,
              -12.0192905
            ],
            [
              -76.8064524,
              -12.0190387
            ],
            [
              -76.8077399,
              -12.0172338
            ],
            [
              -76.8068816,
              -12.0149251
            ],
            [
              -76.8041779,
              -12.0143794
            ],
            [
              -76.802118,
              -12.0157646
            ],
            [
              -76.7998005,
              -12.0180313
            ],
            [
              -76.7959381,
              -12.0189967
            ],
            [
              -76.7919899,
              -12.0187448
            ],
            [
              -76.7931487,
              -12.0160585
            ],
            [
              -76.7961956,
              -12.0147572
            ],
            [
              -76.7935778,
              -12.0147152
            ],
            [
              -76.7899729,
              -12.0132041
            ],
            [
              -76.7895867,
              -12.0112313
            ],
            [
              -76.7943074,
              -12.0103918
            ],
            [
              -76.7960669,
              -12.0111893
            ],
            [
              -76.797526,
              -12.0057324
            ],
            [
              -76.7989851,
              -12.0075374
            ],
            [
              -76.8027188,
              -12.0087547
            ],
            [
              -76.8039204,
              -12.0092584
            ],
            [
              -76.8076111,
              -12.0088386
            ],
            [
              -76.8102719,
              -12.0092584
            ],
            [
              -76.8148209,
              -12.0105177
            ],
            [
              -76.8133189,
              -12.0095103
            ],
            [
              -76.8114735,
              -12.0067818
            ],
            [
              -76.8095423,
              -12.0042632
            ],
            [
              -76.8122889,
              -12.0056904
            ],
            [
              -76.8152501,
              -12.0066559
            ],
            [
              -76.8164517,
              -12.0065299
            ],
            [
              -76.8172242,
              -12.0055225
            ],
            [
              -76.8176962,
              -12.0047879
            ],
            [
              -76.8184472,
              -12.0045361
            ],
            [
              -76.8199278,
              -12.0025002
            ],
            [
              -76.8217946,
              -12.0014507
            ],
            [
              -76.8235113,
              -12.0017026
            ],
            [
              -76.8270518,
              -12.0031298
            ],
            [
              -76.8290044,
              -12.0033607
            ],
            [
              -76.8290903,
              -12.0016291
            ],
            [
              -76.830249,
              -12.0005587
            ],
            [
              -76.8300666,
              -11.9998451
            ],
            [
              -76.8301202,
              -11.9989426
            ],
            [
              -76.8305494,
              -11.9983654
            ],
            [
              -76.8317617,
              -11.9976098
            ],
            [
              -76.8314506,
              -11.9967178
            ],
            [
              -76.8325191,
              -11.9950349
            ],
            [
              -76.8350511,
              -11.9954547
            ],
            [
              -76.8395572,
              -11.9974696
            ],
            [
              -76.8421751,
              -12.0013316
            ],
            [
              -76.8453508,
              -12.0036403
            ],
            [
              -76.8496018,
              -12.0052402
            ]
          ]
        ]
      }
    }
  ]
}